{
  "type": "FeatureCollection",
  "features": [
    {
      "type": "Feature",
      "properties": {
        "norad_id": 24946,
        "name": "IRIDIUM 33",
        "group": "iridium-33-debris",
        "lat": -86.1458494537801,
        "lon": -6.1252773765368,
        "alt_km": 784.0965697851443,
        "timestamp": "2025-12-23T16:57:12.738745+00:00",
        "meta_object_name": "IRIDIUM 33",
        "meta_object_id": "1997-051C",
        "meta_epoch": "2025-12-23T03:58:44.167872",
        "meta_mean_motion": 14.3504426,
        "meta_eccentricity": 0.00082728,
        "meta_inclination": 86.3859,
        "meta_ra_of_asc_node": 63.845,
        "meta_arg_of_pericenter": 166.1802,
        "meta_mean_anomaly": 193.9622,
        "meta_ephemeris_type": 0,
        "meta_classification_type": "U",
        "meta_norad_cat_id": 24946,
        "meta_element_set_no": 999,
        "meta_rev_at_epoch": 47984,
        "meta_bstar": 0.00010765211,
        "meta_mean_motion_dot": 3.26e-06,
        "meta_mean_motion_ddot": 0,
        "tle_line1": "1 24946U 97051C   25357.16578898  .00000326  00000+0  10765-3 0  9993",
        "tle_line2": "2 24946  86.3859  63.8450 0008272 166.1802 193.9622 14.35044260479848"
      },
      "geometry": {
        "type": "Point",
        "coordinates": [
          -6.1252773765368,
          -86.1458494537801
        ]
      }
    },
    {
      "type": "Feature",
      "properties": {
        "norad_id": 33773,
        "name": "IRIDIUM 33 DEB",
        "group": "iridium-33-debris",
        "lat": -12.828383863975375,
        "lon": -123.23651888118017,
        "alt_km": 750.313920675153,
        "timestamp": "2025-12-23T16:57:12.738790+00:00",
        "meta_object_name": "IRIDIUM 33 DEB",
        "meta_object_id": "1997-051L",
        "meta_epoch": "2025-12-23T04:25:01.162272",
        "meta_mean_motion": 14.43278196,
        "meta_eccentricity": 0.00132128,
        "meta_inclination": 86.3999,
        "meta_ra_of_asc_node": 56.1634,
        "meta_arg_of_pericenter": 116.3011,
        "meta_mean_anomaly": 243.9549,
        "meta_ephemeris_type": 0,
        "meta_classification_type": "U",
        "meta_norad_cat_id": 33773,
        "meta_element_set_no": 999,
        "meta_rev_at_epoch": 88498,
        "meta_bstar": 0.00028262312,
        "meta_mean_motion_dot": 9.72e-06,
        "meta_mean_motion_ddot": 0,
        "tle_line1": "1 33773U 97051L   25357.18404123  .00000972  00000+0  28262-3 0  9990",
        "tle_line2": "2 33773  86.3999  56.1634 0013212 116.3011 243.9549 14.43278196884984"
      },
      "geometry": {
        "type": "Point",
        "coordinates": [
          -123.23651888118017,
          -12.828383863975375
        ]
      }
    },
    {
      "type": "Feature",
      "properties": {
        "norad_id": 33775,
        "name": "IRIDIUM 33 DEB",
        "group": "iridium-33-debris",
        "lat": -25.82774226499132,
        "lon": -133.36444813965403,
        "alt_km": 758.1596994978372,
        "timestamp": "2025-12-23T16:57:12.738807+00:00",
        "meta_object_name": "IRIDIUM 33 DEB",
        "meta_object_id": "1997-051N",
        "meta_epoch": "2025-12-23T04:37:42.126816",
        "meta_mean_motion": 14.4148958,
        "meta_eccentricity": 0.00151932,
        "meta_inclination": 86.3625,
        "meta_ra_of_asc_node": 45.0904,
        "meta_arg_of_pericenter": 123.4918,
        "meta_mean_anomaly": 298.8096,
        "meta_ephemeris_type": 0,
        "meta_classification_type": "U",
        "meta_norad_cat_id": 33775,
        "meta_element_set_no": 999,
        "meta_rev_at_epoch": 88291,
        "meta_bstar": 0.00028728715,
        "meta_mean_motion_dot": 9.53e-06,
        "meta_mean_motion_ddot": 0,
        "tle_line1": "1 33775U 97051N   25357.19284869  .00000953  00000+0  28729-3 0  9993",
        "tle_line2": "2 33775  86.3625  45.0904 0015193 123.4918 298.8096 14.41489580882910"
      },
      "geometry": {
        "type": "Point",
        "coordinates": [
          -133.36444813965403,
          -25.82774226499132
        ]
      }
    },
    {
      "type": "Feature",
      "properties": {
        "norad_id": 33776,
        "name": "IRIDIUM 33 DEB",
        "group": "iridium-33-debris",
        "lat": -52.12536940453716,
        "lon": 71.53157020166744,
        "alt_km": 781.1710962093684,
        "timestamp": "2025-12-23T16:57:12.738821+00:00",
        "meta_object_name": "IRIDIUM 33 DEB",
        "meta_object_id": "1997-051P",
        "meta_epoch": "2025-12-23T05:45:23.294880",
        "meta_mean_motion": 14.38252689,
        "meta_eccentricity": 0.00155515,
        "meta_inclination": 86.4031,
        "meta_ra_of_asc_node": 76.3663,
        "meta_arg_of_pericenter": 156.8521,
        "meta_mean_anomaly": 256.7736,
        "meta_ephemeris_type": 0,
        "meta_classification_type": "U",
        "meta_norad_cat_id": 33776,
        "meta_element_set_no": 999,
        "meta_rev_at_epoch": 88233,
        "meta_bstar": 0.00025539679,
        "meta_mean_motion_dot": 7.97e-06,
        "meta_mean_motion_ddot": 0,
        "tle_line1": "1 33776U 97051P   25357.23985295  .00000797  00000+0  25540-3 0  9994",
        "tle_line2": "2 33776  86.4031  76.3663 0015551 156.8521 256.7736 14.38252689882334"
      },
      "geometry": {
        "type": "Point",
        "coordinates": [
          71.53157020166744,
          -52.12536940453716
        ]
      }
    },
    {
      "type": "Feature",
      "properties": {
        "norad_id": 33777,
        "name": "IRIDIUM 33 DEB",
        "group": "iridium-33-debris",
        "lat": 61.3286969066152,
        "lon": 37.08545611362968,
        "alt_km": 704.619584116329,
        "timestamp": "2025-12-23T16:57:12.738834+00:00",
        "meta_object_name": "IRIDIUM 33 DEB",
        "meta_object_id": "1997-051Q",
        "meta_epoch": "2025-12-23T01:49:24.757536",
        "meta_mean_motion": 14.55681547,
        "meta_eccentricity": 0.00060892,
        "meta_inclination": 86.3772,
        "meta_ra_of_asc_node": 30.7065,
        "meta_arg_of_pericenter": 204.7335,
        "meta_mean_anomaly": 155.3581,
        "meta_ephemeris_type": 0,
        "meta_classification_type": "U",
        "meta_norad_cat_id": 33777,
        "meta_element_set_no": 999,
        "meta_rev_at_epoch": 88684,
        "meta_bstar": 0.00082504009,
        "meta_mean_motion_dot": 3.625e-05,
        "meta_mean_motion_ddot": 0,
        "tle_line1": "1 33777U 97051Q   25357.07598099  .00003625  00000+0  82504-3 0  9995",
        "tle_line2": "2 33777  86.3772  30.7065 0006089 204.7335 155.3581 14.55681547886848"
      },
      "geometry": {
        "type": "Point",
        "coordinates": [
          37.08545611362968,
          61.3286969066152
        ]
      }
    },
    {
      "type": "Feature",
      "properties": {
        "norad_id": 33850,
        "name": "IRIDIUM 33 DEB",
        "group": "iridium-33-debris",
        "lat": -33.44832531949125,
        "lon": -152.1136148020697,
        "alt_km": 756.806180381479,
        "timestamp": "2025-12-23T16:57:12.738846+00:00",
        "meta_object_name": "IRIDIUM 33 DEB",
        "meta_object_id": "1997-051T",
        "meta_epoch": "2025-12-23T01:18:39.353760",
        "meta_mean_motion": 14.42170528,
        "meta_eccentricity": 0.00132174,
        "meta_inclination": 86.3408,
        "meta_ra_of_asc_node": 25.7438,
        "meta_arg_of_pericenter": 130.2075,
        "meta_mean_anomaly": 301.3168,
        "meta_ephemeris_type": 0,
        "meta_classification_type": "U",
        "meta_norad_cat_id": 33850,
        "meta_element_set_no": 999,
        "meta_rev_at_epoch": 88301,
        "meta_bstar": 0.00036951681,
        "meta_mean_motion_dot": 1.237e-05,
        "meta_mean_motion_ddot": 0,
        "tle_line1": "1 33850U 97051T   25357.05462215  .00001237  00000+0  36952-3 0  9998",
        "tle_line2": "2 33850  86.3408  25.7438 0013217 130.2075 301.3168 14.42170528883017"
      },
      "geometry": {
        "type": "Point",
        "coordinates": [
          -152.1136148020697,
          -33.44832531949125
        ]
      }
    },
    {
      "type": "Feature",
      "properties": {
        "norad_id": 33853,
        "name": "IRIDIUM 33 DEB",
        "group": "iridium-33-debris",
        "lat": -19.874146134746187,
        "lon": -16.447727291022524,
        "alt_km": 1013.1591163342655,
        "timestamp": "2025-12-23T16:57:12.738859+00:00",
        "meta_object_name": "IRIDIUM 33 DEB",
        "meta_object_id": "1997-051W",
        "meta_epoch": "2025-12-23T00:09:43.235424",
        "meta_mean_motion": 13.99112351,
        "meta_eccentricity": 0.02074949,
        "meta_inclination": 86.0001,
        "meta_ra_of_asc_node": 345.3082,
        "meta_arg_of_pericenter": 204.1504,
        "meta_mean_anomaly": 212.5923,
        "meta_ephemeris_type": 0,
        "meta_classification_type": "U",
        "meta_norad_cat_id": 33853,
        "meta_element_set_no": 999,
        "meta_rev_at_epoch": 85489,
        "meta_bstar": 0.0012076466,
        "meta_mean_motion_dot": 2.12e-05,
        "meta_mean_motion_ddot": 0,
        "tle_line1": "1 33853U 97051W   25357.00675041  .00002120  00000+0  12076-2 0  9991",
        "tle_line2": "2 33853  86.0001 345.3082 0207494 204.1504 212.5923 13.99112351854899"
      },
      "geometry": {
        "type": "Point",
        "coordinates": [
          -16.447727291022524,
          -19.874146134746187
        ]
      }
    }
  ]
}